COMMENT,ORIGINATOR,NORAD_CAT_ID,OBJECT_NAME,OBJECT_TYPE,CLASSIFICATION_TYPE,INTLDES,EPOCH,EPOCH_MICROSECONDS,MEAN_MOTION,ECCENTRICITY,INCLINATION,RA_OF_ASC_NODE,ARG_OF_PERICENTER,MEAN_ANOMALY,EPHEMERIS_TYPE,ELEMENT_SET_NO,REV_AT_EPOCH,BSTAR,MEAN_MOTION_DOT,MEAN_MOTION_DDOT,FILE,TLE_LINE0,TLE_LINE1,TLE_LINE2,OBJECT_ID,OBJECT_NUMBER,SEMIMAJOR_AXIS,PERIOD,APOGEE,PERIGEE,DECAYED,date
GENERATED VIA SPACETRACK.ORG API,18 SPCS,48886,SPACEBEE-102,PAYLOAD,U,21059H,2023/3/23 7:43,61696,15.25299767,0.0007571,97.5825,217.3824,215.4748,144.5986,0,999,9626,0.0013798,0.00034823,0,3868494,0 SPACEBEE-102,1 48886U 21059H   23082.32186414  .00034823  00000-0  13798-2 0  9995,2 48886  97.5825 217.3824 0007571 215.4748 144.5986 15.25299767 96263,2021-059H,48886,6868.022,94.408,495.087,484.688,0,
GENERATED VIA SPACETRACK.ORG API,18 SPCS,48886,SPACEBEE-102,PAYLOAD,U,21059H,2023/3/23 20:19,873792,15.25360027,0.0007523,97.5829,217.9142,213.493,146.5833,0,999,9634,0.0021192,0.00053756,0,3868698,0 SPACEBEE-102,1 48886U 21059H   23082.84667678  .00053756  00000-0  21192-2 0  9991,2 48886  97.5829 217.9142 0007523 213.4930 146.5833 15.25360027 96344,2021-059H,48886,6867.842,94.404,494.873,484.54,0,
GENERATED VIA SPACETRACK.ORG API,18 SPCS,48886,SPACEBEE-102,PAYLOAD,U,21059H,2023/3/23 21:53,720704,15.2536742,0.0007522,97.5829,217.9807,213.4874,146.5889,0,999,9635,0.0021652,0.00054945,0,3868816,0 SPACEBEE-102,1 48886U 21059H   23082.91227686  .00054945  00000-0  21652-2 0  9992,2 48886  97.5829 217.9807 0007522 213.4874 146.5889 15.25367420 96354,2021-059H,48886,6867.819,94.403,494.85,484.518,0,
GENERATED VIA SPACETRACK.ORG API,18 SPCS,48886,SPACEBEE-102,PAYLOAD,U,21059H,2023/3/24 7:20,42720,15.25468996,0.0007471,97.583,218.3793,212.0579,148.0205,0,999,9641,0.0049732,0.00127924,0,3869277,0 SPACEBEE-102,1 48886U 21059H   23083.30586855  .00127924  00000-0  49732-2 0  9999,2 48886  97.5830 218.3793 0007471 212.0579 148.0205 15.25468996 96411,2021-059H,48886,6867.514,94.397,494.51,484.249,0,
GENERATED VIA SPACETRACK.ORG API,18 SPCS,48886,SPACEBEE-102,PAYLOAD,U,21059H,2023/3/24 8:54,633024,15.25477084,0.000747,97.5831,218.4454,211.7406,148.3382,0,999,9642,0.0048775,0.0012545,0,3869846,0 SPACEBEE-102,1 48886U 21059H   23083.37146566  .00125450  00000-0  48775-2 0  9995,2 48886  97.5831 218.4454 0007470 211.7406 148.3382 15.25477084 96429,2021-059H,48886,6867.49,94.397,494.485,484.225,0,
GENERATED VIA SPACETRACK.ORG API,18 SPCS,48886,SPACEBEE-102,PAYLOAD,U,21059H,2023/3/24 8:54,633024,15.25477084,0.000747,97.5831,218.4454,211.7406,148.3382,0,999,9642,0.0048775,0.0012545,0,3869993,0 SPACEBEE-102,1 48886U 21059H   23083.37146566  .00125450  00000-0  48775-2 0  9995,2 48886  97.5831 218.4454 0007470 211.7406 148.3382 15.25477084 96429,2021-059H,48886,6867.49,94.397,494.485,484.225,0,
GENERATED VIA SPACETRACK.ORG API,18 SPCS,48886,SPACEBEE-102,PAYLOAD,U,21059H,2023/3/24 21:30,801632,15.25478801,0.0007496,97.583,218.9772,209.5314,150.5501,0,999,9650,0.0017588,0.00044706,0,3870109,0 SPACEBEE-102,1 48886U 21059H   23083.89623613  .00044706  00000-0  17588-2 0  9997,2 48886  97.5830 218.9772 0007496 209.5314 150.5501 15.25478801 96502,2021-059H,48886,6867.485,94.397,494.498,484.202,0,
GENERATED VIA SPACETRACK.ORG API,18 SPCS,48886,SPACEBEE-102,PAYLOAD,U,21059H,2023/3/24 21:30,801632,15.25478801,0.0007496,97.583,218.9772,209.5314,150.5501,0,999,9650,0.0017588,0.00044706,0,3870336,0 SPACEBEE-102,1 48886U 21059H   23083.89623613  .00044706  00000-0  17588-2 0  9997,2 48886  97.5830 218.9772 0007496 209.5314 150.5501 15.25478801 96502,2021-059H,48886,6867.485,94.397,494.498,484.202,0,
GENERATED VIA SPACETRACK.ORG API,18 SPCS,48886,SPACEBEE-102,PAYLOAD,U,21059H,2023/3/25 21:07,568960,15.25565241,0.0007484,97.5828,219.9744,206.4328,153.6529,0,999,9665,0.0015928,0.00040562,0,3871104,0 SPACEBEE-102,1 48886U 21059H   23084.88013390  .00040562  00000-0  15928-2 0  9994,2 48886  97.5828 219.9744 0007484 206.4328 153.6529 15.25565241 96652,2021-059H,48886,6867.226,94.391,494.23,483.951,0,
GENERATED VIA SPACETRACK.ORG API,18 SPCS,48886,SPACEBEE-102,PAYLOAD,U,21059H,2023/3/25 22:41,662464,15.25570435,0.0007486,97.5827,220.0408,206.3027,153.7832,0,999,9666,0.0016041,0.00040858,0,3871314,0 SPACEBEE-102,1 48886U 21059H   23084.94572526  .00040858  00000-0  16041-2 0  9997,2 48886  97.5827 220.0408 0007486 206.3027 153.7832 15.25570435 96668,2021-059H,48886,6867.21,94.391,494.216,483.934,0,
GENERATED VIA SPACETRACK.ORG API,18 SPCS,48886,SPACEBEE-102,PAYLOAD,U,21059H,2023/3/26 20:44,151936,15.25634994,0.0007527,97.5824,220.9714,203.4777,156.6118,0,999,9680,0.0013794,0.00035166,0,3871964,0 SPACEBEE-102,1 48886U 21059H   23085.86398324  .00035166  00000-0  13794-2 0  9999,2 48886  97.5824 220.9714 0007527 203.4777 156.6118 15.25634994 96806,2021-059H,48886,6867.016,94.387,494.05,483.713,0,
GENERATED VIA SPACETRACK.ORG API,18 SPCS,48886,SPACEBEE-102,PAYLOAD,U,21059H,2023/3/26 20:44,151936,15.25634994,0.0007527,97.5824,220.9714,203.4777,156.6118,0,999,9680,0.0013794,0.00035166,0,3872164,0 SPACEBEE-102,1 48886U 21059H   23085.86398324  .00035166  00000-0  13794-2 0  9999,2 48886  97.5824 220.9714 0007527 203.4777 156.6118 15.25634994 96806,2021-059H,48886,6867.016,94.387,494.05,483.713,0,
GENERATED VIA SPACETRACK.ORG API,18 SPCS,48886,SPACEBEE-102,PAYLOAD,U,21059H,2023/3/27 7:45,535872,15.25670755,0.0007598,97.5824,221.4371,202.1785,157.9125,0,999,9687,0.0014639,0.00037376,0,3872569,0 SPACEBEE-102,1 48886U 21059H   23086.32309648  .00037376  00000-0  14639-2 0  9996,2 48886  97.5824 221.4371 0007598 202.1785 157.9125 15.25670755 96878,2021-059H,48886,6866.909,94.385,493.992,483.557,0,
GENERATED VIA SPACETRACK.ORG API,18 SPCS,48886,SPACEBEE-102,PAYLOAD,U,21059H,2023/3/27 21:55,152448,15.25715751,0.0007566,97.5827,222.0359,200.2213,159.8726,0,999,9696,0.0014373,0.00036742,0,3872915,0 SPACEBEE-102,1 48886U 21059H   23086.91336982  .00036742  00000-0  14373-2 0  9993,2 48886  97.5827 222.0359 0007566 200.2213 159.8726 15.25715751 96968,2021-059H,48886,6866.774,94.382,493.834,483.444,0,
GENERATED VIA SPACETRACK.ORG API,18 SPCS,48886,SPACEBEE-102,PAYLOAD,U,21059H,2023/3/28 7:21,46656,15.25746612,0.0007575,97.5828,222.4351,198.5728,161.5234,0,999,9702,0.0014823,0.00037936,0,3873128,0 SPACEBEE-102,1 48886U 21059H   23087.30687554  .00037936  00000-0  14823-2 0  9997,2 48886  97.5828 222.4351 0007575 198.5728 161.5234 15.25746612 97027,2021-059H,48886,6866.681,94.38,493.748,483.345,0,
GENERATED VIA SPACETRACK.ORG API,18 SPCS,48886,SPACEBEE-102,PAYLOAD,U,21059H,2023/3/28 8:56,455872,15.25751939,0.0007589,97.5829,222.5017,198.4121,161.6843,0,999,9703,0.001476,0.00037779,0,3873565,0 SPACEBEE-102,1 48886U 21059H   23087.37245898  .00037779  00000-0  14760-2 0  9990,2 48886  97.5829 222.5017 0007589 198.4121 161.6843 15.25751939 97035,2021-059H,48886,6866.665,94.38,493.742,483.319,0,
GENERATED VIA SPACETRACK.ORG API,18 SPCS,48886,SPACEBEE-102,PAYLOAD,U,21059H,2023/3/28 21:31,47904,15.25796932,0.0007558,97.5829,223.0338,196.7135,163.3855,0,999,9711,0.0015935,0.00040865,0,3873921,0 SPACEBEE-102,1 48886U 21059H   23087.89711861  .00040865  00000-0  15935-2 0  9990,2 48886  97.5829 223.0338 0007558 196.7135 163.3855 15.25796932 97112,2021-059H,48886,6866.53,94.377,493.585,483.206,0,
GENERATED VIA SPACETRACK.ORG API,18 SPCS,48886,SPACEBEE-102,PAYLOAD,U,21059H,2023/3/29 8:32,292416,15.25834303,0.0007585,97.5827,223.4992,194.9771,165.1243,0,999,9718,0.0016334,0.00041943,0,3874394,0 SPACEBEE-102,1 48886U 21059H   23088.35618394  .00041943  00000-0  16334-2 0  9991,2 48886  97.5827 223.4992 0007585 194.9771 165.1243 15.25834303 97189,2021-059H,48886,6866.418,94.375,493.492,483.075,0,
GENERATED VIA SPACETRACK.ORG API,18 SPCS,48886,SPACEBEE-102,PAYLOAD,U,21059H,2023/3/29 8:32,292416,15.25834303,0.0007585,97.5827,223.4992,194.9771,165.1243,0,999,9718,0.0016334,0.00041943,0,3874492,0 SPACEBEE-102,1 48886U 21059H   23088.35618394  .00041943  00000-0  16334-2 0  9991,2 48886  97.5827 223.4992 0007585 194.9771 165.1243 15.25834303 97189,2021-059H,48886,6866.418,94.375,493.492,483.075,0,
GENERATED VIA SPACETRACK.ORG API,18 SPCS,48886,SPACEBEE-102,PAYLOAD,U,21059H,2023/3/29 21:08,423776,15.25880566,0.0007578,97.5825,224.0313,193.4258,166.6779,0,999,9726,0.0016546,0.00042551,0,3874790,0 SPACEBEE-102,1 48886U 21059H   23088.88081509  .00042551  00000-0  16546-2 0  9992,2 48886  97.5825 224.0313 0007578 193.4258 166.6779 15.25880566 97268,2021-059H,48886,6866.28,94.372,493.348,482.941,0,
GENERATED VIA SPACETRACK.ORG API,18 SPCS,48886,SPACEBEE-102,PAYLOAD,U,21059H,2023/3/30 14:27,408864,15.25944702,0.000755,97.5823,224.7628,191.5978,168.5087,0,999,9737,0.0018048,0.00046534,0,3875626,0 SPACEBEE-102,1 48886U 21059H   23089.60215751  .00046534  00000-0  18048-2 0  9995,2 48886  97.5823 224.7628 0007550 191.5978 168.5087 15.25944702 97378,2021-059H,48886,6866.087,94.368,493.136,482.768,0,
GENERATED VIA SPACETRACK.ORG API,18 SPCS,48886,SPACEBEE-102,PAYLOAD,U,21059H,2023/3/30 14:27,408864,15.25944702,0.000755,97.5823,224.7628,191.5978,168.5087,0,999,9737,0.0018048,0.00046534,0,3875726,0 SPACEBEE-102,1 48886U 21059H   23089.60215751  .00046534  00000-0  18048-2 0  9995,2 48886  97.5823 224.7628 0007550 191.5978 168.5087 15.25944702 97378,2021-059H,48886,6866.087,94.368,493.136,482.768,0,
GENERATED VIA SPACETRACK.ORG API,18 SPCS,48886,SPACEBEE-102,PAYLOAD,U,21059H,2023/3/31 20:21,278432,15.26064344,0.0007543,97.5827,226.0269,187.223,172.8901,0,999,9756,0.0017411,0.00045042,0,3876531,0 SPACEBEE-102,1 48886U 21059H   23090.84803563  .00045042  00000-0  17411-2 0  9993,2 48886  97.5827 226.0269 0007543 187.2230 172.8901 15.26064344 97563,2021-059H,48886,6865.728,94.36,492.772,482.414,0,
